{
  "type": "FeatureCollection",
  "features": [
    {
      "type": "Feature",
      "properties": {
        "norad_id": 40730,
        "name": "GPS BIIF-10 (PRN 08)",
        "group": "gps-ops",
        "lat": 52.34297955991649,
        "lon": 25.08188785336036,
        "alt_km": 20098.88696674261,
        "timestamp": "2025-12-18T08:58:43.669925+00:00",
        "meta_object_name": "GPS BIIF-10 (PRN 08)",
        "meta_object_id": "2015-033A",
        "meta_epoch": "2025-12-17T17:40:14.806272",
        "meta_mean_motion": 2.00565457,
        "meta_eccentricity": 0.01112676,
        "meta_inclination": 54.1263,
        "meta_ra_of_asc_node": 274.5673,
        "meta_arg_of_pericenter": 26.9306,
        "meta_mean_anomaly": 333.6659,
        "meta_ephemeris_type": 0,
        "meta_classification_type": "U",
        "meta_norad_cat_id": 40730,
        "meta_element_set_no": 999,
        "meta_rev_at_epoch": 7635,
        "meta_bstar": 0,
        "meta_mean_motion_dot": -4.1e-07,
        "meta_mean_motion_ddot": 0,
        "tle_line1": "1 40730U 15033A   25351.73628248 -.00000041  00000+0  00000+0 0  9996",
        "tle_line2": "2 40730  54.1263 274.5673 0111267  26.9306 333.6659  2.00565457 76355"
      },
      "geometry": {
        "type": "Point",
        "coordinates": [
          25.08188785336036,
          52.34297955991649
        ]
      }
    },
    {
      "type": "Feature",
      "properties": {
        "norad_id": 41019,
        "name": "GPS BIIF-11 (PRN 10)",
        "group": "gps-ops",
        "lat": 44.30391097425433,
        "lon": 77.42519956141534,
        "alt_km": 20470.039487630427,
        "timestamp": "2025-12-18T08:58:43.669936+00:00",
        "meta_object_name": "GPS BIIF-11 (PRN 10)",
        "meta_object_id": "2015-062A",
        "meta_epoch": "2025-12-17T07:07:49.922112",
        "meta_mean_motion": 2.00567224,
        "meta_eccentricity": 0.01109439,
        "meta_inclination": 56.8355,
        "meta_ra_of_asc_node": 37.826,
        "meta_arg_of_pericenter": 230.0627,
        "meta_mean_anomaly": 129.0159,
        "meta_ephemeris_type": 0,
        "meta_classification_type": "U",
        "meta_norad_cat_id": 41019,
        "meta_element_set_no": 999,
        "meta_rev_at_epoch": 7418,
        "meta_bstar": 0,
        "meta_mean_motion_dot": -7.6e-07,
        "meta_mean_motion_ddot": 0,
        "tle_line1": "1 41019U 15062A   25351.29710558 -.00000076  00000+0  00000+0 0  9994",
        "tle_line2": "2 41019  56.8355  37.8260 0110943 230.0627 129.0159  2.00567224 74188"
      },
      "geometry": {
        "type": "Point",
        "coordinates": [
          77.42519956141534,
          44.30391097425433
        ]
      }
    },
    {
      "type": "Feature",
      "properties": {
        "norad_id": 41328,
        "name": "GPS BIIF-12 (PRN 32)",
        "group": "gps-ops",
        "lat": -1.6347842225916898,
        "lon": 95.5022235026126,
        "alt_km": 20282.49992262536,
        "timestamp": "2025-12-18T08:58:43.669947+00:00",
        "meta_object_name": "GPS BIIF-12 (PRN 32)",
        "meta_object_id": "2016-007A",
        "meta_epoch": "2025-12-17T09:06:47.085696",
        "meta_mean_motion": 2.00560552,
        "meta_eccentricity": 0.0092397,
        "meta_inclination": 55.4087,
        "meta_ra_of_asc_node": 96.6729,
        "meta_arg_of_pericenter": 243.6823,
        "meta_mean_anomaly": 115.3496,
        "meta_ephemeris_type": 0,
        "meta_classification_type": "U",
        "meta_norad_cat_id": 41328,
        "meta_element_set_no": 999,
        "meta_rev_at_epoch": 7219,
        "meta_bstar": 0,
        "meta_mean_motion_dot": -3.9e-07,
        "meta_mean_motion_ddot": 0,
        "tle_line1": "1 41328U 16007A   25351.37971164 -.00000039  00000+0  00000+0 0  9997",
        "tle_line2": "2 41328  55.4087  96.6729 0092397 243.6823 115.3496  2.00560552 72199"
      },
      "geometry": {
        "type": "Point",
        "coordinates": [
          95.5022235026126,
          -1.6347842225916898
        ]
      }
    },
    {
      "type": "Feature",
      "properties": {
        "norad_id": 43873,
        "name": "GPS BIII-1  (PRN 04)",
        "group": "gps-ops",
        "lat": -51.65744996919424,
        "lon": -20.67180386341608,
        "alt_km": 20133.9929049938,
        "timestamp": "2025-12-18T08:58:43.669959+00:00",
        "meta_object_name": "GPS BIII-1  (PRN 04)",
        "meta_object_id": "2018-109A",
        "meta_epoch": "2025-12-15T18:29:34.483200",
        "meta_mean_motion": 2.00553802,
        "meta_eccentricity": 0.00374359,
        "meta_inclination": 55.5688,
        "meta_ra_of_asc_node": 99.4273,
        "meta_arg_of_pericenter": 195.145,
        "meta_mean_anomaly": 336.5518,
        "meta_ephemeris_type": 0,
        "meta_classification_type": "U",
        "meta_norad_cat_id": 43873,
        "meta_element_set_no": 999,
        "meta_rev_at_epoch": 5139,
        "meta_bstar": 0,
        "meta_mean_motion_dot": -3.2e-07,
        "meta_mean_motion_ddot": 0,
        "tle_line1": "1 43873U 18109A   25349.77053800 -.00000032  00000+0  00000+0 0  9991",
        "tle_line2": "2 43873  55.5688  99.4273 0037435 195.1450 336.5518  2.00553802 51399"
      },
      "geometry": {
        "type": "Point",
        "coordinates": [
          -20.67180386341608,
          -51.65744996919424
        ]
      }
    },
    {
      "type": "Feature",
      "properties": {
        "norad_id": 44506,
        "name": "GPS BIII-2  (PRN 18)",
        "group": "gps-ops",
        "lat": 25.75599373463963,
        "lon": 139.1060412714044,
        "alt_km": 20080.696387610384,
        "timestamp": "2025-12-18T08:58:43.669970+00:00",
        "meta_object_name": "GPS BIII-2  (PRN 18)",
        "meta_object_id": "2019-056A",
        "meta_epoch": "2025-12-17T03:59:08.759040",
        "meta_mean_motion": 2.00566605,
        "meta_eccentricity": 0.00577134,
        "meta_inclination": 55.7199,
        "meta_ra_of_asc_node": 338.3768,
        "meta_arg_of_pericenter": 198.5058,
        "meta_mean_anomaly": 157.947,
        "meta_ephemeris_type": 0,
        "meta_classification_type": "U",
        "meta_norad_cat_id": 44506,
        "meta_element_set_no": 999,
        "meta_rev_at_epoch": 4641,
        "meta_bstar": 0,
        "meta_mean_motion_dot": -8.7e-07,
        "meta_mean_motion_ddot": 0,
        "tle_line1": "1 44506U 19056A   25351.16607360 -.00000087  00000+0  00000+0 0  9999",
        "tle_line2": "2 44506  55.7199 338.3768 0057713 198.5058 157.9470  2.00566605 46412"
      },
      "geometry": {
        "type": "Point",
        "coordinates": [
          139.1060412714044,
          25.75599373463963
        ]
      }
    },
    {
      "type": "Feature",
      "properties": {
        "norad_id": 45854,
        "name": "GPS BIII-3  (PRN 23)",
        "group": "gps-ops",
        "lat": 56.49911305325162,
        "lon": 129.65173529340902,
        "alt_km": 20234.636861915857,
        "timestamp": "2025-12-18T08:58:43.669981+00:00",
        "meta_object_name": "GPS BIII-3  (PRN 23)",
        "meta_object_id": "2020-041A",
        "meta_epoch": "2025-12-17T06:02:11.568192",
        "meta_mean_motion": 2.00562016,
        "meta_eccentricity": 0.00605926,
        "meta_inclination": 56.5499,
        "meta_ra_of_asc_node": 36.0099,
        "meta_arg_of_pericenter": 203.5861,
        "meta_mean_anomaly": 158.5614,
        "meta_ephemeris_type": 0,
        "meta_classification_type": "U",
        "meta_norad_cat_id": 45854,
        "meta_element_set_no": 999,
        "meta_rev_at_epoch": 4039,
        "meta_bstar": 0,
        "meta_mean_motion_dot": -7.7e-07,
        "meta_mean_motion_ddot": 0,
        "tle_line1": "1 45854U 20041A   25351.25152278 -.00000077  00000+0  00000+0 0  9994",
        "tle_line2": "2 45854  56.5499  36.0099 0060592 203.5861 158.5614  2.00562016 40398"
      },
      "geometry": {
        "type": "Point",
        "coordinates": [
          129.65173529340902,
          56.49911305325162
        ]
      }
    },
    {
      "type": "Feature",
      "properties": {
        "norad_id": 46826,
        "name": "GPS BIII-4  (PRN 14)",
        "group": "gps-ops",
        "lat": 46.27766037940032,
        "lon": -92.45987876165117,
        "alt_km": 20308.2918618753,
        "timestamp": "2025-12-18T08:58:43.670000+00:00",
        "meta_object_name": "GPS BIII-4  (PRN 14)",
        "meta_object_id": "2020-078A",
        "meta_epoch": "2025-12-16T01:06:13.902336",
        "meta_mean_motion": 2.00566891,
        "meta_eccentricity": 0.00647554,
        "meta_inclination": 54.0145,
        "meta_ra_of_asc_node": 218.2068,
        "meta_arg_of_pericenter": 203.3828,
        "meta_mean_anomaly": 339.3936,
        "meta_ephemeris_type": 0,
        "meta_classification_type": "U",
        "meta_norad_cat_id": 46826,
        "meta_element_set_no": 999,
        "meta_rev_at_epoch": 3783,
        "meta_bstar": 0,
        "meta_mean_motion_dot": 6.7e-07,
        "meta_mean_motion_ddot": 0,
        "tle_line1": "1 46826U 20078A   25350.04599424  .00000067  00000+0  00000+0 0  9996",
        "tle_line2": "2 46826  54.0145 218.2068 0064755 203.3828 339.3936  2.00566891 37831"
      },
      "geometry": {
        "type": "Point",
        "coordinates": [
          -92.45987876165117,
          46.27766037940032
        ]
      }
    }
  ]
}